[{"OBJECT_NAME":"ONEWEB-0367","OBJECT_ID":"2021-090Q","EPOCH":"2026-03-09T20:18:04.635936","MEAN_MOTION":13.20770274,"ECCENTRICITY":0.00017979,"INCLINATION":87.9171,"RA_OF_ASC_NODE":294.2744,"ARG_OF_PERICENTER":87.0151,"MEAN_ANOMALY":273.1188,"EPHEMERIS_TYPE":0,"CLASSIFICATION_TYPE":"U","NORAD_CAT_ID":49293,"ELEMENT_SET_NO":999,"REV_AT_EPOCH":21671,"BSTAR":-0.0008171241,"MEAN_MOTION_DOT":-3.19e-6,"MEAN_MOTION_DDOT":0},{"OBJECT_NAME":"COSMOS 970 DEB","OBJECT_ID":"1977-121CM","EPOCH":"2026-02-22T21:19:45.581664","MEAN_MOTION":13.32822051,"ECCENTRICITY":0.0101041,"INCLINATION":65.9388,"RA_OF_ASC_NODE":282.7741,"ARG_OF_PERICENTER":316.5081,"MEAN_ANOMALY":61.0116,"EPHEMERIS_TYPE":0,"CLASSIFICATION_TYPE":"U","NORAD_CAT_ID":64976,"ELEMENT_SET_NO":999,"REV_AT_EPOCH":59179,"BSTAR":0.00050603,"MEAN_MOTION_DOT":1.83e-6,"MEAN_MOTION_DDOT":0}]
